ONEWEB-0520             
1 54138U 22138AB  26010.43092033  .00000087  00000+0  18503-3 0  9994
2 54138  87.9235 336.3500 0001698  72.4357 287.6961 13.19725132156015
ONEWEB-0521             
1 54139U 22138AC  26010.38827565  .00000173  00000+0  40076-3 0  9991
2 54139  87.9235 336.3425 0002021  83.3602 276.7761 13.19725495155958
ONEWEB-0522             
1 54140U 22138AD  26010.44355887  .00000111  00000+0  24536-3 0  9998
2 54140  87.9233 336.3328 0001783  75.7055 284.4276 13.19726666156006
ONEWEB-0523             
1 54141U 22138AE  26010.53210363  .00000108  00000+0  23477-3 0  9997
2 54141  87.9228 305.8879 0002021 100.5094 259.6267 13.20768323158496
ONEWEB-0524             
1 54142U 22138AF  26010.52106513  .00000175  00000+0  39871-3 0  9997
2 54142  87.9228 305.8917 0001108 106.5860 253.5395 13.20771614158494
ONEWEB-0525             
1 54143U 22138AG  26010.91741225  .00000067  00000+0  13506-3 0  9993
2 54143  87.9229 336.2567 0001695  72.2518 287.8800 13.19725469156084
ONEWEB-0526             
1 54144U 22138AH  26010.41986499  .00000067  00000+0  13471-3 0  9994
2 54144  87.9235 336.3465 0001694  78.5982 281.5342 13.19725145155995
ONEWEB-0529             
1 54145U 22138AJ  26010.42302218  .00000084  00000+0  17721-3 0  9998
2 54145  87.9223 336.3700 0001662  73.7107 286.4209 13.19724777156016
ONEWEB-0531             
1 54146U 22138AK  26010.80989434 -.00000017  00000+0 -72994-4 0  9994
2 54146  87.9228 305.8293 0001769 108.4176 251.7150 13.20772322158530
ONEWEB-0535             
1 54147U 22138AL  26010.38038123  .00000105  00000+0  23024-3 0  9993
2 54147  87.9233 336.3488 0001991  91.3734 268.7627 13.19726780156023
ONEWEB-0536             
1 54148U 22138AM  26010.34272544  .00000036  00000+0  56696-4 0  9992
2 54148  87.9219 305.9629 0001611 113.0068 247.1236 13.20772820158463
ONEWEB-0527             
1 54642U 22166A   26010.41941191 -.00000007  00000+0 -48704-4 0  9992
2 54642  87.9223 275.4705 0001542  75.5247 284.6058 13.21826979150698
ONEWEB-0528             
1 54643U 22166B   26010.95587901 -.00000080  00000+0 -22588-3 0  9999
2 54643  87.9222 275.3674 0001529  72.6941 287.4360 13.21827114150774
ONEWEB-0539             
1 54644U 22166C   26010.99371635 -.00000012  00000+0 -60526-4 0  9999
2 54644  87.9223 275.3253 0001762  70.1396 289.9927 13.21824403150779
ONEWEB-0540             
1 54645U 22166D   26011.00044146 -.00000024  00000+0 -89230-4 0  9993
2 54645  87.9220 275.3615 0001752  75.9284 284.2045 13.21826867150761
ONEWEB-0542             
1 54646U 22166E   26011.00360116 -.00000054  00000+0 -16255-3 0  9991
2 54646  87.9218 275.3187 0001960  73.3264 286.8086 13.21824741150777
