[{"OBJECT_NAME":"ONEWEB-0520","OBJECT_ID":"2022-138AB","EPOCH":"2026-01-10T10:20:31.516512","MEAN_MOTION":13.19725132,"ECCENTRICITY":0.00016983,"INCLINATION":87.9235,"RA_OF_ASC_NODE":336.35,"ARG_OF_PERICENTER":72.4357,"MEAN_ANOMALY":287.6961,"EPHEMERIS_TYPE":0,"CLASSIFICATION_TYPE":"U","NORAD_CAT_ID":54138,"ELEMENT_SET_NO":999,"REV_AT_EPOCH":15601,"BSTAR":0.00018502681,"MEAN_MOTION_DOT":8.7e-7,"MEAN_MOTION_DDOT":0},{"OBJECT_NAME":"ONEWEB-0521","OBJECT_ID":"2022-138AC","EPOCH":"2026-01-10T09:19:07.016160","MEAN_MOTION":13.19725495,"ECCENTRICITY":0.00020213,"INCLINATION":87.9235,"RA_OF_ASC_NODE":336.3425,"ARG_OF_PERICENTER":83.3602,"MEAN_ANOMALY":276.7761,"EPHEMERIS_TYPE":0,"CLASSIFICATION_TYPE":"U","NORAD_CAT_ID":54139,"ELEMENT_SET_NO":999,"REV_AT_EPOCH":15595,"BSTAR":0.00040075799,"MEAN_MOTION_DOT":1.73e-6,"MEAN_MOTION_DDOT":0},{"OBJECT_NAME":"ONEWEB-0522","OBJECT_ID":"2022-138AD","EPOCH":"2026-01-10T10:38:43.486368","MEAN_MOTION":13.19726666,"ECCENTRICITY":0.00017837,"INCLINATION":87.9233,"RA_OF_ASC_NODE":336.3328,"ARG_OF_PERICENTER":75.7055,"MEAN_ANOMALY":284.4276,"EPHEMERIS_TYPE":0,"CLASSIFICATION_TYPE":"U","NORAD_CAT_ID":54140,"ELEMENT_SET_NO":999,"REV_AT_EPOCH":15600,"BSTAR":0.00024536121,"MEAN_MOTION_DOT":1.11e-6,"MEAN_MOTION_DDOT":0},{"OBJECT_NAME":"ONEWEB-0523","OBJECT_ID":"2022-138AE","EPOCH":"2026-01-10T12:46:13.753632","MEAN_MOTION":13.20768323,"ECCENTRICITY":0.00020211,"INCLINATION":87.9228,"RA_OF_ASC_NODE":305.8879,"ARG_OF_PERICENTER":100.5094,"MEAN_ANOMALY":259.6267,"EPHEMERIS_TYPE":0,"CLASSIFICATION_TYPE":"U","NORAD_CAT_ID":54141,"ELEMENT_SET_NO":999,"REV_AT_EPOCH":15849,"BSTAR":0.00023477383,"MEAN_MOTION_DOT":1.08e-6,"MEAN_MOTION_DDOT":0},{"OBJECT_NAME":"ONEWEB-0524","OBJECT_ID":"2022-138AF","EPOCH":"2026-01-10T12:30:20.027232","MEAN_MOTION":13.20771614,"ECCENTRICITY":0.0001108,"INCLINATION":87.9228,"RA_OF_ASC_NODE":305.8917,"ARG_OF_PERICENTER":106.586,"MEAN_ANOMALY":253.5395,"EPHEMERIS_TYPE":0,"CLASSIFICATION_TYPE":"U","NORAD_CAT_ID":54142,"ELEMENT_SET_NO":999,"REV_AT_EPOCH":15849,"BSTAR":0.00039871489,"MEAN_MOTION_DOT":1.75e-6,"MEAN_MOTION_DDOT":0},{"OBJECT_NAME":"ONEWEB-0525","OBJECT_ID":"2022-138AG","EPOCH":"2026-01-10T22:01:04.418400","MEAN_MOTION":13.19725469,"ECCENTRICITY":0.00016953,"INCLINATION":87.9229,"RA_OF_ASC_NODE":336.2567,"ARG_OF_PERICENTER":72.2518,"MEAN_ANOMALY":287.88,"EPHEMERIS_TYPE":0,"CLASSIFICATION_TYPE":"U","NORAD_CAT_ID":54143,"ELEMENT_SET_NO":999,"REV_AT_EPOCH":15608,"BSTAR":0.00013505567,"MEAN_MOTION_DOT":6.7e-7,"MEAN_MOTION_DDOT":0},{"OBJECT_NAME":"ONEWEB-0526","OBJECT_ID":"2022-138AH","EPOCH":"2026-01-10T10:04:36.335136","MEAN_MOTION":13.19725145,"ECCENTRICITY":0.00016948,"INCLINATION":87.9235,"RA_OF_ASC_NODE":336.3465,"ARG_OF_PERICENTER":78.5982,"MEAN_ANOMALY":281.5342,"EPHEMERIS_TYPE":0,"CLASSIFICATION_TYPE":"U","NORAD_CAT_ID":54144,"ELEMENT_SET_NO":999,"REV_AT_EPOCH":15599,"BSTAR":0.00013471484,"MEAN_MOTION_DOT":6.7e-7,"MEAN_MOTION_DDOT":0},{"OBJECT_NAME":"ONEWEB-0529","OBJECT_ID":"2022-138AJ","EPOCH":"2026-01-10T10:09:09.116352","MEAN_MOTION":13.19724777,"ECCENTRICITY":0.00016626,"INCLINATION":87.9223,"RA_OF_ASC_NODE":336.37,"ARG_OF_PERICENTER":73.7107,"MEAN_ANOMALY":286.4209,"EPHEMERIS_TYPE":0,"CLASSIFICATION_TYPE":"U","NORAD_CAT_ID":54145,"ELEMENT_SET_NO":999,"REV_AT_EPOCH":15601,"BSTAR":0.00017720575,"MEAN_MOTION_DOT":8.4e-7,"MEAN_MOTION_DDOT":0},{"OBJECT_NAME":"ONEWEB-0531","OBJECT_ID":"2022-138AK","EPOCH":"2026-01-10T19:26:14.870976","MEAN_MOTION":13.20772322,"ECCENTRICITY":0.0001769,"INCLINATION":87.9228,"RA_OF_ASC_NODE":305.8293,"ARG_OF_PERICENTER":108.4176,"MEAN_ANOMALY":251.715,"EPHEMERIS_TYPE":0,"CLASSIFICATION_TYPE":"U","NORAD_CAT_ID":54146,"ELEMENT_SET_NO":999,"REV_AT_EPOCH":15853,"BSTAR":-7.2994373e-5,"MEAN_MOTION_DOT":-1.7e-7,"MEAN_MOTION_DDOT":0},{"OBJECT_NAME":"ONEWEB-0535","OBJECT_ID":"2022-138AL","EPOCH":"2026-01-10T09:07:44.938272","MEAN_MOTION":13.1972678,"ECCENTRICITY":0.00019916,"INCLINATION":87.9233,"RA_OF_ASC_NODE":336.3488,"ARG_OF_PERICENTER":91.3734,"MEAN_ANOMALY":268.7627,"EPHEMERIS_TYPE":0,"CLASSIFICATION_TYPE":"U","NORAD_CAT_ID":54147,"ELEMENT_SET_NO":999,"REV_AT_EPOCH":15602,"BSTAR":0.00023024276,"MEAN_MOTION_DOT":1.05e-6,"MEAN_MOTION_DDOT":0},{"OBJECT_NAME":"ONEWEB-0536","OBJECT_ID":"2022-138AM","EPOCH":"2026-01-10T08:13:31.478016","MEAN_MOTION":13.2077282,"ECCENTRICITY":0.00016115,"INCLINATION":87.9219,"RA_OF_ASC_NODE":305.9629,"ARG_OF_PERICENTER":113.0068,"MEAN_ANOMALY":247.1236,"EPHEMERIS_TYPE":0,"CLASSIFICATION_TYPE":"U","NORAD_CAT_ID":54148,"ELEMENT_SET_NO":999,"REV_AT_EPOCH":15846,"BSTAR":5.6696419e-5,"MEAN_MOTION_DOT":3.6e-7,"MEAN_MOTION_DDOT":0},{"OBJECT_NAME":"ONEWEB-0527","OBJECT_ID":"2022-166A","EPOCH":"2026-01-10T10:03:57.189024","MEAN_MOTION":13.21826979,"ECCENTRICITY":0.00015423,"INCLINATION":87.9223,"RA_OF_ASC_NODE":275.4705,"ARG_OF_PERICENTER":75.5247,"MEAN_ANOMALY":284.6058,"EPHEMERIS_TYPE":0,"CLASSIFICATION_TYPE":"U","NORAD_CAT_ID":54642,"ELEMENT_SET_NO":999,"REV_AT_EPOCH":15069,"BSTAR":-4.8704293e-5,"MEAN_MOTION_DOT":-7.0e-8,"MEAN_MOTION_DDOT":0},{"OBJECT_NAME":"ONEWEB-0528","OBJECT_ID":"2022-166B","EPOCH":"2026-01-10T22:56:27.946464","MEAN_MOTION":13.21827114,"ECCENTRICITY":0.00015292,"INCLINATION":87.9222,"RA_OF_ASC_NODE":275.3674,"ARG_OF_PERICENTER":72.6941,"MEAN_ANOMALY":287.436,"EPHEMERIS_TYPE":0,"CLASSIFICATION_TYPE":"U","NORAD_CAT_ID":54643,"ELEMENT_SET_NO":999,"REV_AT_EPOCH":15077,"BSTAR":-0.00022588464,"MEAN_MOTION_DOT":-8.0e-7,"MEAN_MOTION_DDOT":0},{"OBJECT_NAME":"ONEWEB-0539","OBJECT_ID":"2022-166C","EPOCH":"2026-01-10T23:50:57.092640","MEAN_MOTION":13.21824403,"ECCENTRICITY":0.00017622,"INCLINATION":87.9223,"RA_OF_ASC_NODE":275.3253,"ARG_OF_PERICENTER":70.1396,"MEAN_ANOMALY":289.9927,"EPHEMERIS_TYPE":0,"CLASSIFICATION_TYPE":"U","NORAD_CAT_ID":54644,"ELEMENT_SET_NO":999,"REV_AT_EPOCH":15077,"BSTAR":-6.0525796e-5,"MEAN_MOTION_DOT":-1.2e-7,"MEAN_MOTION_DDOT":0},{"OBJECT_NAME":"ONEWEB-0540","OBJECT_ID":"2022-166D","EPOCH":"2026-01-11T00:00:38.142144","MEAN_MOTION":13.21826867,"ECCENTRICITY":0.0001752,"INCLINATION":87.922,"RA_OF_ASC_NODE":275.3615,"ARG_OF_PERICENTER":75.9284,"MEAN_ANOMALY":284.2045,"EPHEMERIS_TYPE":0,"CLASSIFICATION_TYPE":"U","NORAD_CAT_ID":54645,"ELEMENT_SET_NO":999,"REV_AT_EPOCH":15076,"BSTAR":-8.9229548e-5,"MEAN_MOTION_DOT":-2.4e-7,"MEAN_MOTION_DDOT":0},{"OBJECT_NAME":"ONEWEB-0542","OBJECT_ID":"2022-166E","EPOCH":"2026-01-11T00:05:11.140224","MEAN_MOTION":13.21824741,"ECCENTRICITY":0.00019606,"INCLINATION":87.9218,"RA_OF_ASC_NODE":275.3187,"ARG_OF_PERICENTER":73.3264,"MEAN_ANOMALY":286.8086,"EPHEMERIS_TYPE":0,"CLASSIFICATION_TYPE":"U","NORAD_CAT_ID":54646,"ELEMENT_SET_NO":999,"REV_AT_EPOCH":15077,"BSTAR":-0.00016255028,"MEAN_MOTION_DOT":-5.4e-7,"MEAN_MOTION_DDOT":0}]
